KUIPER-00096            
1 65135U 25171D   26064.55805980  .00001770  00000+0  26109-3 0  9999
2 65135  51.8984 176.3521 0000300 123.0177 237.0815 14.79933095 32287
KUIPER-00097            
1 65136U 25171E   26064.55537403 -.00001914  00000+0 -22221-3 0  9995
2 65136  51.9027 178.9954 0000729 126.9977 233.1052 14.79921302 32233
KUIPER-00098            
1 65137U 25171F   26064.62014757  .00007301  00000+0  98446-3 0  9992
2 65137  51.9011 181.0832 0001877 148.9196 211.1877 14.79984352 31569
KUIPER-00099            
1 65138U 25171G   26064.59808116  .00006887  00000+0  93262-3 0  9998
2 65138  51.9023 171.1739 0000541  38.6989 321.4012 14.79878170 32355
KUIPER-00100            
1 65139U 25171H   26064.49861944  .00002931  00000+0  41329-3 0  9999
2 65139  51.9022 169.0897 0001353  11.6991 348.4003 14.79937761 32375
KUIPER-00102            
1 65140U 25171J   26064.56334712  .00007189  00000+0  96948-3 0  9994
2 65140  51.8985 171.3240 0000620  95.0799 265.0234 14.79997545 32343
KUIPER-00103            
1 65141U 25171K   26064.64585859 -.00017716  00000+0 -23012-2 0  9994
2 65141  51.8989 188.4511 0001854 128.4404 231.6725 14.79927514 32110
KUIPER-00104            
1 65142U 25171L   26064.59176692  .00007117  00000+0  96206-3 0  9998
2 65142  51.9027 176.1526 0000626  72.6314 287.4717 14.79913026 32282
KUIPER-00105            
1 65143U 25171M   26064.61723015  .00006959  00000+0  94298-3 0  9991
2 65143  51.8998 183.6584 0001382  96.1505 263.9615 14.79837152 32189
KUIPER-00106            
1 65144U 25171N   26064.57165125  .00008691  00000+0  76497-3 0  9995
2 65144  51.8940 173.6844 0007954  85.9572 274.2306 14.97165041 32325
KUIPER-00107            
1 65145U 25171P   26064.56886313  .00007468  00000+0  10058-2 0  9995
2 65145  51.9009 166.3150 0000307  28.6535 331.4444 14.80005909 32428
KUIPER-00108            
1 65146U 25171Q   26064.52160969  .00005001  00000+0  68457-3 0  9992
2 65146  51.9022 179.0412 0001111 134.8611 225.2442 14.79931178 32247
KUIPER-00109            
1 65147U 25171R   26064.49322755 -.00000417  00000+0 -25756-4 0  9996
2 65147  51.9010 174.1066 0000462  50.7439 309.3565 14.79928333 32304
KUIPER-00110            
1 65148U 25171S   26064.58212722  .00006754  00000+0  91410-3 0  9996
2 65148  51.9001 186.3117 0001951 177.5300 182.5672 14.79934190 32135
KUIPER-00111            
1 65149U 25171T   26064.54163926  .00006520  00000+0  88150-3 0  9992
2 65149  51.8967 191.3870 0001880 141.7197 218.3900 14.80024692 32069
KUIPER-00112            
1 65150U 25171U   26064.59452747  .00006899  00000+0  93141-3 0  9996
2 65150  51.9027 173.7139 0000291  91.0375 269.0621 14.80004397 32312
