[{"OBJECT_NAME":"KUIPER-00096","OBJECT_ID":"2025-171D","EPOCH":"2026-03-05T13:23:36.366720","MEAN_MOTION":14.79933095,"ECCENTRICITY":3.007e-5,"INCLINATION":51.8984,"RA_OF_ASC_NODE":176.3521,"ARG_OF_PERICENTER":123.0177,"MEAN_ANOMALY":237.0815,"EPHEMERIS_TYPE":0,"CLASSIFICATION_TYPE":"U","NORAD_CAT_ID":65135,"ELEMENT_SET_NO":999,"REV_AT_EPOCH":3228,"BSTAR":0.00026108923,"MEAN_MOTION_DOT":1.77e-5,"MEAN_MOTION_DDOT":0},{"OBJECT_NAME":"KUIPER-00097","OBJECT_ID":"2025-171E","EPOCH":"2026-03-05T13:19:44.316192","MEAN_MOTION":14.79921302,"ECCENTRICITY":7.29e-5,"INCLINATION":51.9027,"RA_OF_ASC_NODE":178.9954,"ARG_OF_PERICENTER":126.9977,"MEAN_ANOMALY":233.1052,"EPHEMERIS_TYPE":0,"CLASSIFICATION_TYPE":"U","NORAD_CAT_ID":65136,"ELEMENT_SET_NO":999,"REV_AT_EPOCH":3223,"BSTAR":-0.00022221008,"MEAN_MOTION_DOT":-1.914e-5,"MEAN_MOTION_DDOT":0},{"OBJECT_NAME":"KUIPER-00098","OBJECT_ID":"2025-171F","EPOCH":"2026-03-05T14:53:00.750048","MEAN_MOTION":14.79984352,"ECCENTRICITY":0.00018772,"INCLINATION":51.9011,"RA_OF_ASC_NODE":181.0832,"ARG_OF_PERICENTER":148.9196,"MEAN_ANOMALY":211.1877,"EPHEMERIS_TYPE":0,"CLASSIFICATION_TYPE":"U","NORAD_CAT_ID":65137,"ELEMENT_SET_NO":999,"REV_AT_EPOCH":3156,"BSTAR":0.00098446308,"MEAN_MOTION_DOT":7.301e-5,"MEAN_MOTION_DDOT":0},{"OBJECT_NAME":"KUIPER-00099","OBJECT_ID":"2025-171G","EPOCH":"2026-03-05T14:21:14.212224","MEAN_MOTION":14.7987817,"ECCENTRICITY":5.416e-5,"INCLINATION":51.9023,"RA_OF_ASC_NODE":171.1739,"ARG_OF_PERICENTER":38.6989,"MEAN_ANOMALY":321.4012,"EPHEMERIS_TYPE":0,"CLASSIFICATION_TYPE":"U","NORAD_CAT_ID":65138,"ELEMENT_SET_NO":999,"REV_AT_EPOCH":3235,"BSTAR":0.0009326173,"MEAN_MOTION_DOT":6.887e-5,"MEAN_MOTION_DDOT":0},{"OBJECT_NAME":"KUIPER-00100","OBJECT_ID":"2025-171H","EPOCH":"2026-03-05T11:58:00.719616","MEAN_MOTION":14.79937761,"ECCENTRICITY":0.00013536,"INCLINATION":51.9022,"RA_OF_ASC_NODE":169.0897,"ARG_OF_PERICENTER":11.6991,"MEAN_ANOMALY":348.4003,"EPHEMERIS_TYPE":0,"CLASSIFICATION_TYPE":"U","NORAD_CAT_ID":65139,"ELEMENT_SET_NO":999,"REV_AT_EPOCH":3237,"BSTAR":0.00041328537,"MEAN_MOTION_DOT":2.931e-5,"MEAN_MOTION_DDOT":0},{"OBJECT_NAME":"KUIPER-00102","OBJECT_ID":"2025-171J","EPOCH":"2026-03-05T13:31:13.191168","MEAN_MOTION":14.79997545,"ECCENTRICITY":6.203e-5,"INCLINATION":51.8985,"RA_OF_ASC_NODE":171.324,"ARG_OF_PERICENTER":95.0799,"MEAN_ANOMALY":265.0234,"EPHEMERIS_TYPE":0,"CLASSIFICATION_TYPE":"U","NORAD_CAT_ID":65140,"ELEMENT_SET_NO":999,"REV_AT_EPOCH":3234,"BSTAR":0.00096947753,"MEAN_MOTION_DOT":7.189e-5,"MEAN_MOTION_DDOT":0},{"OBJECT_NAME":"KUIPER-00103","OBJECT_ID":"2025-171K","EPOCH":"2026-03-05T15:30:02.182176","MEAN_MOTION":14.79927514,"ECCENTRICITY":0.0001854,"INCLINATION":51.8989,"RA_OF_ASC_NODE":188.4511,"ARG_OF_PERICENTER":128.4404,"MEAN_ANOMALY":231.6725,"EPHEMERIS_TYPE":0,"CLASSIFICATION_TYPE":"U","NORAD_CAT_ID":65141,"ELEMENT_SET_NO":999,"REV_AT_EPOCH":3211,"BSTAR":-0.0023011959,"MEAN_MOTION_DOT":-0.00017716,"MEAN_MOTION_DDOT":0},{"OBJECT_NAME":"KUIPER-00104","OBJECT_ID":"2025-171L","EPOCH":"2026-03-05T14:12:08.661888","MEAN_MOTION":14.79913026,"ECCENTRICITY":6.268e-5,"INCLINATION":51.9027,"RA_OF_ASC_NODE":176.1526,"ARG_OF_PERICENTER":72.6314,"MEAN_ANOMALY":287.4717,"EPHEMERIS_TYPE":0,"CLASSIFICATION_TYPE":"U","NORAD_CAT_ID":65142,"ELEMENT_SET_NO":999,"REV_AT_EPOCH":3228,"BSTAR":0.00096206073,"MEAN_MOTION_DOT":7.117e-5,"MEAN_MOTION_DDOT":0},{"OBJECT_NAME":"KUIPER-00105","OBJECT_ID":"2025-171M","EPOCH":"2026-03-05T14:48:48.684960","MEAN_MOTION":14.79837152,"ECCENTRICITY":0.00013829,"INCLINATION":51.8998,"RA_OF_ASC_NODE":183.6584,"ARG_OF_PERICENTER":96.1505,"MEAN_ANOMALY":263.9615,"EPHEMERIS_TYPE":0,"CLASSIFICATION_TYPE":"U","NORAD_CAT_ID":65143,"ELEMENT_SET_NO":999,"REV_AT_EPOCH":3218,"BSTAR":0.00094298339,"MEAN_MOTION_DOT":6.959e-5,"MEAN_MOTION_DDOT":0},{"OBJECT_NAME":"KUIPER-00106","OBJECT_ID":"2025-171N","EPOCH":"2026-03-05T13:43:10.668000","MEAN_MOTION":14.97165041,"ECCENTRICITY":0.00079543,"INCLINATION":51.894,"RA_OF_ASC_NODE":173.6844,"ARG_OF_PERICENTER":85.9572,"MEAN_ANOMALY":274.2306,"EPHEMERIS_TYPE":0,"CLASSIFICATION_TYPE":"U","NORAD_CAT_ID":65144,"ELEMENT_SET_NO":999,"REV_AT_EPOCH":3232,"BSTAR":0.00076496569,"MEAN_MOTION_DOT":8.691e-5,"MEAN_MOTION_DDOT":0},{"OBJECT_NAME":"KUIPER-00107","OBJECT_ID":"2025-171P","EPOCH":"2026-03-05T13:39:09.774432","MEAN_MOTION":14.80005909,"ECCENTRICITY":3.078e-5,"INCLINATION":51.9009,"RA_OF_ASC_NODE":166.315,"ARG_OF_PERICENTER":28.6535,"MEAN_ANOMALY":331.4444,"EPHEMERIS_TYPE":0,"CLASSIFICATION_TYPE":"U","NORAD_CAT_ID":65145,"ELEMENT_SET_NO":999,"REV_AT_EPOCH":3242,"BSTAR":0.0010057728,"MEAN_MOTION_DOT":7.468e-5,"MEAN_MOTION_DDOT":0},{"OBJECT_NAME":"KUIPER-00108","OBJECT_ID":"2025-171Q","EPOCH":"2026-03-05T12:31:07.077216","MEAN_MOTION":14.79931178,"ECCENTRICITY":0.00011118,"INCLINATION":51.9022,"RA_OF_ASC_NODE":179.0412,"ARG_OF_PERICENTER":134.8611,"MEAN_ANOMALY":225.2442,"EPHEMERIS_TYPE":0,"CLASSIFICATION_TYPE":"U","NORAD_CAT_ID":65146,"ELEMENT_SET_NO":999,"REV_AT_EPOCH":3224,"BSTAR":0.00068456529,"MEAN_MOTION_DOT":5.001e-5,"MEAN_MOTION_DDOT":0},{"OBJECT_NAME":"KUIPER-00109","OBJECT_ID":"2025-171R","EPOCH":"2026-03-05T11:50:14.860320","MEAN_MOTION":14.79928333,"ECCENTRICITY":4.621e-5,"INCLINATION":51.901,"RA_OF_ASC_NODE":174.1066,"ARG_OF_PERICENTER":50.7439,"MEAN_ANOMALY":309.3565,"EPHEMERIS_TYPE":0,"CLASSIFICATION_TYPE":"U","NORAD_CAT_ID":65147,"ELEMENT_SET_NO":999,"REV_AT_EPOCH":3230,"BSTAR":-2.5756167e-5,"MEAN_MOTION_DOT":-4.17e-6,"MEAN_MOTION_DDOT":0},{"OBJECT_NAME":"KUIPER-00110","OBJECT_ID":"2025-171S","EPOCH":"2026-03-05T13:58:15.791808","MEAN_MOTION":14.7993419,"ECCENTRICITY":0.00019511,"INCLINATION":51.9001,"RA_OF_ASC_NODE":186.3117,"ARG_OF_PERICENTER":177.53,"MEAN_ANOMALY":182.5672,"EPHEMERIS_TYPE":0,"CLASSIFICATION_TYPE":"U","NORAD_CAT_ID":65148,"ELEMENT_SET_NO":999,"REV_AT_EPOCH":3213,"BSTAR":0.00091410153,"MEAN_MOTION_DOT":6.754e-5,"MEAN_MOTION_DDOT":0},{"OBJECT_NAME":"KUIPER-00111","OBJECT_ID":"2025-171T","EPOCH":"2026-03-05T12:59:57.632064","MEAN_MOTION":14.80024692,"ECCENTRICITY":0.00018806,"INCLINATION":51.8967,"RA_OF_ASC_NODE":191.387,"ARG_OF_PERICENTER":141.7197,"MEAN_ANOMALY":218.39,"EPHEMERIS_TYPE":0,"CLASSIFICATION_TYPE":"U","NORAD_CAT_ID":65149,"ELEMENT_SET_NO":999,"REV_AT_EPOCH":3206,"BSTAR":0.00088149611,"MEAN_MOTION_DOT":6.52e-5,"MEAN_MOTION_DDOT":0},{"OBJECT_NAME":"KUIPER-00112","OBJECT_ID":"2025-171U","EPOCH":"2026-03-05T14:16:07.173408","MEAN_MOTION":14.80004397,"ECCENTRICITY":2.913e-5,"INCLINATION":51.9027,"RA_OF_ASC_NODE":173.7139,"ARG_OF_PERICENTER":91.0375,"MEAN_ANOMALY":269.0621,"EPHEMERIS_TYPE":0,"CLASSIFICATION_TYPE":"U","NORAD_CAT_ID":65150,"ELEMENT_SET_NO":999,"REV_AT_EPOCH":3231,"BSTAR":0.0009314068,"MEAN_MOTION_DOT":6.899e-5,"MEAN_MOTION_DDOT":0}]
